QIANFAN-25              
1 61558U 24185G   26025.77820728  .00000679  00000+0  40632-3 0  9990
2 61558  88.9761  73.2052 0011036 167.3769 192.7691 14.05954430 75692
QIANFAN-26              
1 61559U 24185H   26025.83036630  .00000349  00000+0  33567-3 0  9992
2 61559  88.9770  74.9935 0004330 219.5987 140.4863 13.77841830 74745
QIANFAN-27              
1 61560U 24185J   26025.84401223  .00000824  00000+0  33025-3 0  9996
2 61560  88.9763  71.7727 0009442 133.7911 226.4066 14.27398705 76450
QIANFAN-28              
1 61561U 24185K   26025.80395167  .00001271  00000+0  50547-3 0  9997
2 61561  88.9780  71.7835 0008940 133.0457 227.1487 14.28138211 76461
QIANFAN-29              
1 61562U 24185L   26025.80600103  .00000197  00000+0  28678-3 0  9993
2 61562  88.9746  76.7587 0007899 284.7749  75.2527 13.51028301 73741
QIANFAN-30              
1 61563U 24185M   26025.81423674  .00000146  00000+0  21115-3 0  9994
2 61563  88.9766  76.3003 0005611 265.1858  94.8652 13.50005821 74015
QIANFAN-31              
1 61564U 24185N   26025.81861401  .00000242  00000+0  31825-3 0  9995
2 61564  88.9749  76.0315 0005051 254.0623 105.9976 13.57986550 74146
QIANFAN-32              
1 61565U 24185P   26025.83238978  .00000180  00000+0  26109-3 0  9995
2 61565  88.9810  76.4458 0007652 300.6904  59.3492 13.50752856 73997
